[{"OBJECT_NAME":"VRSS-1","OBJECT_ID":"2012-052A","EPOCH":"2026-03-09T23:06:08.647776","MEAN_MOTION":14.79803332,"ECCENTRICITY":0.00171344,"INCLINATION":97.6079,"RA_OF_ASC_NODE":50.4386,"ARG_OF_PERICENTER":196.7503,"MEAN_ANOMALY":163.3146,"EPHEMERIS_TYPE":0,"CLASSIFICATION_TYPE":"U","NORAD_CAT_ID":38782,"ELEMENT_SET_NO":999,"REV_AT_EPOCH":72493,"BSTAR":0.00021678471,"MEAN_MOTION_DOT":1.587e-5,"MEAN_MOTION_DDOT":0},{"OBJECT_NAME":"ESTCUBE 1","OBJECT_ID":"2013-021C","EPOCH":"2026-03-09T16:34:00.092640","MEAN_MOTION":14.81070071,"ECCENTRICITY":0.00077124,"INCLINATION":97.7417,"RA_OF_ASC_NODE":126.334,"ARG_OF_PERICENTER":350.3106,"MEAN_ANOMALY":9.7957,"EPHEMERIS_TYPE":0,"CLASSIFICATION_TYPE":"U","NORAD_CAT_ID":39161,"ELEMENT_SET_NO":999,"REV_AT_EPOCH":69029,"BSTAR":0.00030050824,"MEAN_MOTION_DOT":2.282e-5,"MEAN_MOTION_DDOT":0}]
